[{"OBJECT_NAME":"RADFXSAT (FOX-1B)","OBJECT_ID":"2017-073E","EPOCH":"2026-03-09T14:17:03.914016","MEAN_MOTION":15.10873817,"ECCENTRICITY":0.0154575,"INCLINATION":97.4852,"RA_OF_ASC_NODE":297.8938,"ARG_OF_PERICENTER":312.4525,"MEAN_ANOMALY":46.3719,"EPHEMERIS_TYPE":0,"CLASSIFICATION_TYPE":"U","NORAD_CAT_ID":43017,"ELEMENT_SET_NO":999,"REV_AT_EPOCH":45034,"BSTAR":0.00051457,"MEAN_MOTION_DOT":0.00011352,"MEAN_MOTION_DDOT":0},{"OBJECT_NAME":"SL-8 DEB","OBJECT_ID":"1979-060D","EPOCH":"2026-03-09T09:25:05.204640","MEAN_MOTION":14.86930675,"ECCENTRICITY":0.00050342,"INCLINATION":73.9946,"RA_OF_ASC_NODE":163.6961,"ARG_OF_PERICENTER":325.1797,"MEAN_ANOMALY":153.745,"EPHEMERIS_TYPE":0,"CLASSIFICATION_TYPE":"U","NORAD_CAT_ID":15784,"ELEMENT_SET_NO":999,"REV_AT_EPOCH":17761,"BSTAR":0.00073619835,"MEAN_MOTION_DOT":6.554e-5,"MEAN_MOTION_DDOT":0}]
